STARLINK F              
1 52661U 22053F   22144.63444684 -.00193999  00000+0 -10424-2 0  9998
2 52661  53.2111 267.2400 0001627  36.2588 323.8545 15.80004061  1730
STARLINK G              
1 52662U 22053G   22144.63432084 -.00197817  00000+0 -10608-2 0  9997
2 52662  53.2112 267.2379 0001478  25.0919 335.0176 15.80059178  1739
STARLINK H              
1 52663U 22053H   22144.63426286 -.00200847  00000+0 -10755-2 0  9996
2 52663  53.2113 267.2387 0001412  40.0914 320.0213 15.80099484  1730
STARLINK J              
1 52664U 22053J   22144.63437851 -.00098976  00000+0 -52172-3 0  9995
2 52664  53.2114 267.2384 0001605  40.7586 319.3557 15.80108702  1731
STARLINK K              
1 52665U 22053K   22144.63403409 -.00203830  00000+0 -10889-2 0  9993
2 52665  53.2114 267.2365 0001715   0.7306 359.3719 15.80158135  1738
STARLINK L              
1 52666U 22053L   22144.63420324 -.00127180  00000+0 -67178-3 0  9996
2 52666  53.2112 267.2384 0001382  40.9764 319.1363 15.80169090  1733
STARLINK M              
1 52667U 22053M   22144.63396997 -.00128041  00000+0 -67446-3 0  9990
2 52667  53.2099 267.2348 0001669  60.0011 300.1177 15.80231161  1736
STARLINK N              
1 52668U 22053N   22144.63415287 -.00173266  00000+0 -92325-3 0  9998
2 52668  53.2113 267.2374 0001692  16.4494 343.6583 15.80124552  1737
STARLINK P              
1 52669U 22053P   22144.63379537 -.00175788  00000+0 -93185-3 0  9992
2 52669  53.2109 267.2348 0001458  40.9794 319.1338 15.80245895  1728
STARLINK Q              
1 52670U 22053Q   22144.66667824 -.00730939  00000+0 -42298-2 0  9999
2 52670  53.2163 267.0785 0001671  44.7115 140.9273 15.79787126  1307
STARLINK R              
1 52671U 22053R   22144.66667824 -.00724469  00000+0 -41674-2 0  9998
2 52671  53.2163 267.0738 0001454  56.1452 131.5166 15.79902288  1301
STARLINK S              
1 52672U 22053S   22144.66667824 -.00730208  00000+0 -42147-2 0  9993
2 52672  53.2163 267.0762 0001756  39.1753 147.5566 15.79840565  1309
STARLINK T              
1 52673U 22053T   22144.66667824 -.00804202  00000+0 -46461-2 0  9993
2 52673  53.2162 267.0726 0001676  45.1627 143.0676 15.80009910  1303
STARLINK U              
1 52674U 22053U   22144.66667824 -.00727598  00000+0 -41938-2 0  9990
2 52674  53.2163 267.0755 0001588  50.3978 136.5874 15.79865552  1303
STARLINK V              
1 52675U 22053V   22144.66667824 -.00721364  00000+0 -41333-2 0  9995
2 52675  53.2162 267.0708 0001650  44.1343 144.8992 15.79977948  1304
STARLINK W              
1 52676U 22053W   22144.66667824 -.00724908  00000+0 -41661-2 0  9997
2 52676  53.2163 267.0734 0001600  46.6720 141.3346 15.79922134  1308
STARLINK X              
1 52677U 22053X   22144.66667824 -.00724576  00000+0 -41448-2 0  9992
2 52677  53.2162 267.0694 0001713  43.3135 146.3678 15.80021702  1308
STARLINK Y              
1 52678U 22053Y   22144.66667824 -.00724043  00000+0 -41534-2 0  9998
2 52678  53.2163 267.0718 0001582  46.5223 142.1725 15.79960461  1303
STARLINK Z              
1 52679U 22053Z   22144.66667824 -.00727744  00000+0 -41523-2 0  9998
2 52679  53.2162 267.0673 0001733  41.5521 149.1067 15.80084990  1309
STARLINK AA             
1 52680U 22053AA  22144.66667824 -.00827530  00000+0 -47775-2 0  9999
2 52680  53.2166 267.0707 0001485  43.2238 146.0479 15.80086710  1306
STARLINK AB             
1 52681U 22053AB  22144.66667824 -.00769057  00000+0 -43981-2 0  9994
2 52681  53.2163 267.0666 0001802  43.6601 147.2811 15.80139633  1305
STARLINK AC             
1 52682U 22053AC  22144.66667824 -.00763065  00000+0 -43747-2 0  9998
2 52682  53.2163 267.0689 0001792  44.3456 145.6624 15.80070554  1305
STARLINK AD             
1 52683U 22053AD  22144.66667824 -.00730875  00000+0 -41598-2 0  9994
2 52683  53.2162 267.0651 0001785  39.7856 151.8704 15.80146462  1308
STARLINK AE             
1 52684U 22053AE  22144.66667824 -.00727196  00000+0 -41527-2 0  9999
2 52684  53.2163 267.0682 0001715  41.0398 149.2801 15.80065326  1302
STARLINK AF             
1 52685U 22053AF  22144.66667824 -.00725117  00000+0 -41138-2 0  9999
2 52685  53.2163 267.0631 0001707  42.0715 150.5550 15.80202111  1303
STARLINK AG             
1 52686U 22053AG  22144.66667824 -.00725744  00000+0 -41324-2 0  9993
2 52686  53.2162 267.0662 0001715  42.0615 149.2400 15.80124573  1309
STARLINK AH             
1 52687U 22053AH  22144.66667824 -.00728755  00000+0 -41314-2 0  9998
2 52687  53.2162 267.0624 0001662  41.9643 150.9528 15.80227628  1303
STARLINK AJ             
1 52688U 22053AJ  22144.66667824 -.00726070  00000+0 -41271-2 0  9999
2 52688  53.2163 267.0647 0001699  42.5287 149.4504 15.80163094  1304
STARLINK AK             
1 52689U 22053AK  22144.66667824 -.00732038  00000+0 -41397-2 0  9990
2 52689  53.2162 267.0604 0001410  58.4813 135.3786 15.80291947  1304
STARLINK AL             
1 52690U 22053AL  22144.66667824 -.00735422  00000+0 -41793-2 0  9992
2 52690  53.2163 267.0640 0001663  49.5240 142.7627 15.80192114  1304
STARLINK AM             
1 52691U 22053AM  22144.66667824 -.00712048  00000+0 -40166-2 0  9995
2 52691  53.2162 267.0596 0001508  57.2229 136.9975 15.80294651  1305
STARLINK AN             
1 52692U 22053AN  22144.66667824 -.00728800  00000+0 -41276-2 0  9992
2 52692  53.2163 267.0620 0001709  40.2437 152.9835 15.80248622  1301
STARLINK AP             
1 52693U 22053AP  22144.66667824 -.00723823  00000+0 -40788-2 0  9990
2 52693  53.2162 267.0583 0001630  44.9620 149.8602 15.80345806  1306
STARLINK AQ             
1 52694U 22053AQ  22144.66667824 -.00756507  00000+0 -42907-2 0  9991
2 52694  53.2163 267.0613 0001500  55.6221 137.9215 15.80289462  1307
STARLINK AR             
1 52695U 22053AR  22144.66667824 -.00724653  00000+0 -40760-2 0  9994
2 52695  53.2162 267.0569 0001718  41.7969 153.6602 15.80386789  1308
STARLINK AS             
1 52696U 22053AS  22144.66667824 -.00721211  00000+0 -40668-2 0  9999
2 52696  53.2162 267.0593 0001754  43.4460 151.0696 15.80323683  1300
STARLINK AT             
1 52697U 22053AT  22144.66667824 -.00720595  00000+0 -40444-2 0  9996
2 52697  53.2162 267.0555 0001765  39.5556 156.5442 15.80423000  1306
STARLINK AU             
1 52698U 22053AU  22144.66667824 -.00722602  00000+0 -40679-2 0  9998
2 52698  53.2162 267.0578 0001742  39.0031 156.1701 15.80363125  1305
STARLINK AV             
1 52699U 22053AV  22144.66667824 -.00719317  00000+0 -40304-2 0  9993
2 52699  53.2162 267.0540 0001447  57.2887 139.4866 15.80459018  1301
STARLINK AW             
1 52700U 22053AW  22144.66667824 -.00747332  00000+0 -42084-2 0  9991
2 52700  53.2162 267.0565 0001656  46.4429 149.3707 15.80419839  1306
STARLINK AX             
1 52701U 22053AX  22144.66667824 -.00696635  00000+0 -38884-2 0  9994
2 52701  53.2162 267.0527 0001701  44.8559 152.5427 15.80482420  1303
STARLINK AY             
1 52702U 22053AY  22144.66667824 -.00736209  00000+0 -41338-2 0  9995
2 52702  53.2162 267.0551 0001654  42.9078 153.5127 15.80454161  1302
STARLINK AZ             
1 52703U 22053AZ  22144.66667824 -.00720129  00000+0 -40161-2 0  9993
2 52703  53.2162 267.0508 0001522  52.4162 145.8922 15.80561621  1306
STARLINK BA             
1 52704U 22053BA  22144.66667824 -.00803571  00000+0 -45283-2 0  9997
2 52704  53.2162 267.0538 0001835  45.0962 151.9442 15.80545398  1301
STARLINK BB             
1 52705U 22053BB  22144.66667824 -.00733912  00000+0 -41013-2 0  9996
2 52705  53.2162 267.0513 0001733  39.5581 158.4539 15.80550675  1300
STARLINK BC             
1 52706U 22053BC  22144.66667824 -.00742957  00000+0 -41584-2 0  9999
2 52706  53.2162 267.0524 0001888  42.1507 155.5496 15.80538073  1300
STARLINK BD             
1 52707U 22053BD  22144.66667824 -.00738590  00000+0 -41218-2 0  9992
2 52707  53.2162 267.0499 0001562  52.4359 146.2092 15.80593487  1309
STARLINK BE             
1 52708U 22053BE  22144.66667824 -.00718413  00000+0 -39992-2 0  9991
2 52708  53.2162 267.0498 0001485  55.7386 143.2375 15.80597096  1300
FALCON 9 DEB            
1 52709U 22053BF  22144.62257075  .00224672  29342-4  75746-3 0  9991
2 52709  53.2056 267.1456 0012567 304.6812  55.3031 15.89495490  2106
FALCON 9 DEB            
1 52710U 22053BG  22144.62116792  .00228905  30149-4  75442-3 0  9996
2 52710  53.2065 267.1384 0013648 316.3874  43.6074 15.89911617  2108
FALCON 9 DEB            
1 52711U 22053BH  22144.61713495  .00248972  34025-4  77670-3 0  9997
2 52711  53.2086 267.1169 0009245 326.6951  33.3494 15.91052524  2109
FALCON 9 DEB            
1 52712U 22053BJ  22144.61578342  .00249096  34162-4  76032-3 0  9999
2 52712  53.2095 267.1095 0011716 335.3905  24.6563 15.91427819  2103
COSMOS 2556             
1 52713U 22054A   22144.67339035 -.00000059  00000+0  00000+0 0  9993
2 52713  97.6968  59.1352 0009961 265.3033 161.0244 14.98458078   818
2022-054B               
1 52714U 22054B   22144.61209556 -.00000128  00000+0  00000+0 0  9999
2 52714  97.7020  59.2712 0154634  56.5889  61.5202 15.40281077   816
CST-100 STARLINER OFT-2 
1 52715U 22055A   22143.57912155  .00010717  00000+0  19800-3 0  9997
2 52715  51.6434  98.4640 0005026 147.1299   4.6316 15.49630252341366
2022-056A               
1 52716U 22056A   22144.56116190 -.00001466  00000+0 -95547-3 0  9999
2 52716  86.0012 318.3948 0017429 294.2746 131.3147 14.03050642   581
2022-056B               
1 52717U 22056B   22144.55992429  .00000010  00000+0 -52211-5 0  9992
2 52717  86.0012 318.3937 0013487 293.4950 138.2082 14.03899501   587
2022-056C               
1 52718U 22056C   22144.55755867 -.00001391  00000+0 -88983-3 0  9993
2 52718  86.0016 318.3920 0012652 289.1344 133.9928 14.04134766   583
